{
  "type": "FeatureCollection",
  "features": [
    {
      "type": "Feature",
      "properties": {
        "norad_id": 31384,
        "name": "FENGYUN 1C DEB",
        "group": "fengyun-1c-debris",
        "lat": -36.33563104480893,
        "lon": -43.48712958216095,
        "alt_km": 913.0011804266087,
        "timestamp": "2025-12-09T21:34:11.690101+00:00",
        "meta_object_name": "FENGYUN 1C DEB",
        "meta_object_id": "1999-025BSQ",
        "meta_epoch": "2025-12-08T04:13:31.416384",
        "meta_mean_motion": 13.86050931,
        "meta_eccentricity": 0.04406196,
        "meta_inclination": 98.4582,
        "meta_ra_of_asc_node": 308.6672,
        "meta_arg_of_pericenter": 54.2034,
        "meta_mean_anomaly": 322.9436,
        "meta_ephemeris_type": 0,
        "meta_classification_type": "U",
        "meta_norad_cat_id": 31384,
        "meta_element_set_no": 999,
        "meta_rev_at_epoch": 92961,
        "meta_bstar": 0.0028698607,
        "meta_mean_motion_dot": 7.083e-05,
        "meta_mean_motion_ddot": 0,
        "tle_line1": "1 31384U 99025BSQ 25342.17605806  .00007083  00000+0  28699-2 0  9996",
        "tle_line2": "2 31384  98.4582 308.6672 0440619  54.2034 322.9436 13.86050931929613"
      },
      "geometry": {
        "type": "Point",
        "coordinates": [
          -43.48712958216095,
          -36.33563104480893
        ]
      }
    },
    {
      "type": "Feature",
      "properties": {
        "norad_id": 31385,
        "name": "FENGYUN 1C DEB",
        "group": "fengyun-1c-debris",
        "lat": -67.8075587505736,
        "lon": -128.83562686512474,
        "alt_km": 848.1434985370006,
        "timestamp": "2025-12-09T21:34:11.690111+00:00",
        "meta_object_name": "FENGYUN 1C DEB",
        "meta_object_id": "1999-025BSR",
        "meta_epoch": "2025-12-08T00:18:35.726400",
        "meta_mean_motion": 14.43988949,
        "meta_eccentricity": 0.01348196,
        "meta_inclination": 98.9544,
        "meta_ra_of_asc_node": 71.9176,
        "meta_arg_of_pericenter": 69.5562,
        "meta_mean_anomaly": 102.5231,
        "meta_ephemeris_type": 0,
        "meta_classification_type": "U",
        "meta_norad_cat_id": 31385,
        "meta_element_set_no": 999,
        "meta_rev_at_epoch": 98546,
        "meta_bstar": 0.0002381553,
        "meta_mean_motion_dot": 8.55e-06,
        "meta_mean_motion_ddot": 0,
        "tle_line1": "1 31385U 99025BSR 25342.01291350  .00000855  00000+0  23816-3 0  9992",
        "tle_line2": "2 31385  98.9544  71.9176 0134819  69.5562 102.5231 14.43988949985466"
      },
      "geometry": {
        "type": "Point",
        "coordinates": [
          -128.83562686512474,
          -67.8075587505736
        ]
      }
    },
    {
      "type": "Feature",
      "properties": {
        "norad_id": 31386,
        "name": "FENGYUN 1C DEB",
        "group": "fengyun-1c-debris",
        "lat": 5.913670985768178,
        "lon": 179.95792933568907,
        "alt_km": 1010.9688362429988,
        "timestamp": "2025-12-09T21:34:11.690125+00:00",
        "meta_object_name": "FENGYUN 1C DEB",
        "meta_object_id": "1999-025BSS",
        "meta_epoch": "2025-12-09T12:03:04.178016",
        "meta_mean_motion": 13.86004786,
        "meta_eccentricity": 0.01975639,
        "meta_inclination": 98.4411,
        "meta_ra_of_asc_node": 358.7188,
        "meta_arg_of_pericenter": 293.251,
        "meta_mean_anomaly": 64.7958,
        "meta_ephemeris_type": 0,
        "meta_classification_type": "U",
        "meta_norad_cat_id": 31386,
        "meta_element_set_no": 999,
        "meta_rev_at_epoch": 93817,
        "meta_bstar": 0.0030328716,
        "meta_mean_motion_dot": 4.028e-05,
        "meta_mean_motion_ddot": 0,
        "tle_line1": "1 31386U 99025BSS 25343.50213169  .00004028  00000+0  30329-2 0  9992",
        "tle_line2": "2 31386  98.4411 358.7188 0197563 293.2510  64.7958 13.86004786938173"
      },
      "geometry": {
        "type": "Point",
        "coordinates": [
          179.95792933568907,
          5.913670985768178
        ]
      }
    },
    {
      "type": "Feature",
      "properties": {
        "norad_id": 31387,
        "name": "FENGYUN 1C DEB",
        "group": "fengyun-1c-debris",
        "lat": -73.19873506773727,
        "lon": 9.94868498038942,
        "alt_km": 809.9818452767895,
        "timestamp": "2025-12-09T21:34:11.690137+00:00",
        "meta_object_name": "FENGYUN 1C DEB",
        "meta_object_id": "1999-025BST",
        "meta_epoch": "2025-12-06T22:43:27.576480",
        "meta_mean_motion": 14.13560438,
        "meta_eccentricity": 0.02414641,
        "meta_inclination": 99.1686,
        "meta_ra_of_asc_node": 219.257,
        "meta_arg_of_pericenter": 187.5601,
        "meta_mean_anomaly": 172.1904,
        "meta_ephemeris_type": 0,
        "meta_classification_type": "U",
        "meta_norad_cat_id": 31387,
        "meta_element_set_no": 999,
        "meta_rev_at_epoch": 96215,
        "meta_bstar": 0.00038701787,
        "meta_mean_motion_dot": 9.14e-06,
        "meta_mean_motion_ddot": 0,
        "tle_line1": "1 31387U 99025BST 25340.94684695  .00000914  00000+0  38702-3 0  9998",
        "tle_line2": "2 31387  99.1686 219.2570 0241464 187.5601 172.1904 14.13560438962150"
      },
      "geometry": {
        "type": "Point",
        "coordinates": [
          9.94868498038942,
          -73.19873506773727
        ]
      }
    },
    {
      "type": "Feature",
      "properties": {
        "norad_id": 31388,
        "name": "FENGYUN 1C DEB",
        "group": "fengyun-1c-debris",
        "lat": 3.6652865386425173,
        "lon": 152.503809861753,
        "alt_km": 842.3402584195373,
        "timestamp": "2025-12-09T21:34:11.690147+00:00",
        "meta_object_name": "FENGYUN 1C DEB",
        "meta_object_id": "1999-025BSU",
        "meta_epoch": "2025-12-09T11:13:05.363616",
        "meta_mean_motion": 14.07424431,
        "meta_eccentricity": 0.00463623,
        "meta_inclination": 98.8047,
        "meta_ra_of_asc_node": 331.5147,
        "meta_arg_of_pericenter": 210.2791,
        "meta_mean_anomaly": 301.9992,
        "meta_ephemeris_type": 0,
        "meta_classification_type": "U",
        "meta_norad_cat_id": 31388,
        "meta_element_set_no": 999,
        "meta_rev_at_epoch": 96395,
        "meta_bstar": 0.00013898896,
        "meta_mean_motion_dot": 1.93e-06,
        "meta_mean_motion_ddot": 0,
        "tle_line1": "1 31388U 99025BSU 25343.46742319  .00000193  00000+0  13899-3 0  9996",
        "tle_line2": "2 31388  98.8047 331.5147 0046362 210.2791 301.9992 14.07424431963953"
      },
      "geometry": {
        "type": "Point",
        "coordinates": [
          152.503809861753,
          3.6652865386425173
        ]
      }
    },
    {
      "type": "Feature",
      "properties": {
        "norad_id": 31389,
        "name": "FENGYUN 1C DEB",
        "group": "fengyun-1c-debris",
        "lat": -78.33278081705151,
        "lon": -160.51839382558828,
        "alt_km": 694.1200402622662,
        "timestamp": "2025-12-09T21:34:11.690157+00:00",
        "meta_object_name": "FENGYUN 1C DEB",
        "meta_object_id": "1999-025BSV",
        "meta_epoch": "2025-12-09T10:34:04.462752",
        "meta_mean_motion": 14.60751707,
        "meta_eccentricity": 0.00292984,
        "meta_inclination": 99.0409,
        "meta_ra_of_asc_node": 148.5312,
        "meta_arg_of_pericenter": 199.2981,
        "meta_mean_anomaly": 188.4777,
        "meta_ephemeris_type": 0,
        "meta_classification_type": "U",
        "meta_norad_cat_id": 31389,
        "meta_element_set_no": 999,
        "meta_rev_at_epoch": 96449,
        "meta_bstar": 0.0070224864,
        "meta_mean_motion_dot": 0.00034581,
        "meta_mean_motion_ddot": 0,
        "tle_line1": "1 31389U 99025BSV 25343.44032943  .00034581  00000+0  70225-2 0  9993",
        "tle_line2": "2 31389  99.0409 148.5312 0029298 199.2981 188.4777 14.60751707964492"
      },
      "geometry": {
        "type": "Point",
        "coordinates": [
          -160.51839382558828,
          -78.33278081705151
        ]
      }
    },
    {
      "type": "Feature",
      "properties": {
        "norad_id": 31410,
        "name": "FENGYUN 1C DEB",
        "group": "fengyun-1c-debris",
        "lat": 3.5182431663786824,
        "lon": -34.115282316928266,
        "alt_km": 782.7774333386697,
        "timestamp": "2025-12-09T21:34:11.690167+00:00",
        "meta_object_name": "FENGYUN 1C DEB",
        "meta_object_id": "1999-025BSW",
        "meta_epoch": "2025-12-07T17:17:24.959328",
        "meta_mean_motion": 14.44721575,
        "meta_eccentricity": 0.01105819,
        "meta_inclination": 98.8363,
        "meta_ra_of_asc_node": 143.0724,
        "meta_arg_of_pericenter": 301.77,
        "meta_mean_anomaly": 72.6567,
        "meta_ephemeris_type": 0,
        "meta_classification_type": "U",
        "meta_norad_cat_id": 31410,
        "meta_element_set_no": 999,
        "meta_rev_at_epoch": 97679,
        "meta_bstar": 0.001369376,
        "meta_mean_motion_dot": 5.07e-05,
        "meta_mean_motion_ddot": 0,
        "tle_line1": "1 31410U 99025BSW 25341.72042777  .00005070  00000+0  13694-2 0  9991",
        "tle_line2": "2 31410  98.8363 143.0724 0110581 301.7700  72.6567 14.44721575976794"
      },
      "geometry": {
        "type": "Point",
        "coordinates": [
          -34.115282316928266,
          3.5182431663786824
        ]
      }
    }
  ]
}